{
  "type": "FeatureCollection",
  "features": [
    {
      "type": "Feature",
      "properties": {
        "norad_id": 37846,
        "name": "GSAT0101 (GALILEO-PFM)",
        "group": "gnss",
        "lat": -39.79935390880872,
        "lon": -160.29114318551458,
        "alt_km": 23225.459412351123,
        "timestamp": "2025-12-06T05:40:09.482984+00:00",
        "meta_object_name": "GSAT0101 (GALILEO-PFM)",
        "meta_object_id": "2011-060A",
        "meta_epoch": "2025-12-04T02:27:04.519296",
        "meta_mean_motion": 1.70475494,
        "meta_eccentricity": 0.00028233,
        "meta_inclination": 57.0547,
        "meta_ra_of_asc_node": 347.0545,
        "meta_arg_of_pericenter": 310.6019,
        "meta_mean_anomaly": 49.4066,
        "meta_ephemeris_type": 0,
        "meta_classification_type": "U",
        "meta_norad_cat_id": 37846,
        "meta_element_set_no": 999,
        "meta_rev_at_epoch": 8779,
        "meta_bstar": 0,
        "meta_mean_motion_dot": -7e-07,
        "meta_mean_motion_ddot": 0,
        "tle_line1": "1 37846U 11060A   25338.10213564 -.00000070  00000+0  00000+0 0  9995",
        "tle_line2": "2 37846  57.0547 347.0545 0002823 310.6019  49.4066  1.70475494 87792"
      },
      "geometry": {
        "type": "Point",
        "coordinates": [
          -160.29114318551458,
          -39.79935390880872
        ]
      }
    },
    {
      "type": "Feature",
      "properties": {
        "norad_id": 37847,
        "name": "GSAT0102 (GALILEO-FM2)",
        "group": "gnss",
        "lat": -56.674379381581204,
        "lon": -93.55824573591148,
        "alt_km": 23215.851623761297,
        "timestamp": "2025-12-06T05:40:09.482996+00:00",
        "meta_object_name": "GSAT0102 (GALILEO-FM2)",
        "meta_object_id": "2011-060B",
        "meta_epoch": "2025-12-05T04:42:38.564352",
        "meta_mean_motion": 1.70475694,
        "meta_eccentricity": 0.00048427,
        "meta_inclination": 57.0552,
        "meta_ra_of_asc_node": 347.0252,
        "meta_arg_of_pericenter": 307.1958,
        "meta_mean_anomaly": 49.7725,
        "meta_ephemeris_type": 0,
        "meta_classification_type": "U",
        "meta_norad_cat_id": 37847,
        "meta_element_set_no": 999,
        "meta_rev_at_epoch": 8781,
        "meta_bstar": 0,
        "meta_mean_motion_dot": -7.6e-07,
        "meta_mean_motion_ddot": 0,
        "tle_line1": "1 37847U 11060B   25339.19627968 -.00000076  00000+0  00000+0 0  9999",
        "tle_line2": "2 37847  57.0552 347.0252 0004842 307.1958  49.7725  1.70475694 87810"
      },
      "geometry": {
        "type": "Point",
        "coordinates": [
          -93.55824573591148,
          -56.674379381581204
        ]
      }
    },
    {
      "type": "Feature",
      "properties": {
        "norad_id": 37867,
        "name": "COSMOS 2476 (744)",
        "group": "gnss",
        "lat": 63.90489059137503,
        "lon": -171.36714893827974,
        "alt_km": 19166.299689018673,
        "timestamp": "2025-12-06T05:40:09.483008+00:00",
        "meta_object_name": "COSMOS 2476 (744)",
        "meta_object_id": "2011-064A",
        "meta_epoch": "2025-12-02T19:57:36.313920",
        "meta_mean_motion": 2.13101261,
        "meta_eccentricity": 0.00239603,
        "meta_inclination": 65.1573,
        "meta_ra_of_asc_node": 79.5068,
        "meta_arg_of_pericenter": 233.4935,
        "meta_mean_anomaly": 133.1658,
        "meta_ephemeris_type": 0,
        "meta_classification_type": "U",
        "meta_norad_cat_id": 37867,
        "meta_element_set_no": 999,
        "meta_rev_at_epoch": 10958,
        "meta_bstar": 0,
        "meta_mean_motion_dot": -2.2e-07,
        "meta_mean_motion_ddot": 0,
        "tle_line1": "1 37867U 11064A   25336.83167030 -.00000022  00000+0  00000+0 0  9993",
        "tle_line2": "2 37867  65.1573  79.5068 0023960 233.4935 133.1658  2.13101261109581"
      },
      "geometry": {
        "type": "Point",
        "coordinates": [
          -171.36714893827974,
          63.90489059137503
        ]
      }
    },
    {
      "type": "Feature",
      "properties": {
        "norad_id": 37868,
        "name": "COSMOS 2477 (745)",
        "group": "gnss",
        "lat": -63.50924066731222,
        "lon": 11.405037096666332,
        "alt_km": 19099.063683304747,
        "timestamp": "2025-12-06T05:40:09.483020+00:00",
        "meta_object_name": "COSMOS 2477 (745)",
        "meta_object_id": "2011-064B",
        "meta_epoch": "2025-12-01T05:34:43.743072",
        "meta_mean_motion": 2.1310269,
        "meta_eccentricity": 0.00209845,
        "meta_inclination": 65.1625,
        "meta_ra_of_asc_node": 79.6383,
        "meta_arg_of_pericenter": 233.8301,
        "meta_mean_anomaly": 166.8442,
        "meta_ephemeris_type": 0,
        "meta_classification_type": "U",
        "meta_norad_cat_id": 37868,
        "meta_element_set_no": 999,
        "meta_rev_at_epoch": 10954,
        "meta_bstar": 0,
        "meta_mean_motion_dot": -1.2e-07,
        "meta_mean_motion_ddot": 0,
        "tle_line1": "1 37868U 11064B   25335.23245073 -.00000012  00000+0  00000+0 0  9990",
        "tle_line2": "2 37868  65.1625  79.6383 0020984 233.8301 166.8442  2.13102690109542"
      },
      "geometry": {
        "type": "Point",
        "coordinates": [
          11.405037096666332,
          -63.50924066731222
        ]
      }
    },
    {
      "type": "Feature",
      "properties": {
        "norad_id": 37869,
        "name": "COSMOS 2475 (743)",
        "group": "gnss",
        "lat": -48.31146010051671,
        "lon": -69.24569881002532,
        "alt_km": 19070.833051039805,
        "timestamp": "2025-12-06T05:40:09.483041+00:00",
        "meta_object_name": "COSMOS 2475 (743)",
        "meta_object_id": "2011-064C",
        "meta_epoch": "2025-12-02T03:10:18.719904",
        "meta_mean_motion": 2.13101359,
        "meta_eccentricity": 0.0026048,
        "meta_inclination": 65.1701,
        "meta_ra_of_asc_node": 79.6277,
        "meta_arg_of_pericenter": 248.2415,
        "meta_mean_anomaly": 78.6584,
        "meta_ephemeris_type": 0,
        "meta_classification_type": "U",
        "meta_norad_cat_id": 37869,
        "meta_element_set_no": 999,
        "meta_rev_at_epoch": 10956,
        "meta_bstar": 0,
        "meta_mean_motion_dot": -1.8e-07,
        "meta_mean_motion_ddot": 0,
        "tle_line1": "1 37869U 11064C   25336.13216111 -.00000018  00000+0  00000+0 0  9998",
        "tle_line2": "2 37869  65.1701  79.6277 0026048 248.2415  78.6584  2.13101359109563"
      },
      "geometry": {
        "type": "Point",
        "coordinates": [
          -69.24569881002532,
          -48.31146010051671
        ]
      }
    },
    {
      "type": "Feature",
      "properties": {
        "norad_id": 37948,
        "name": "BEIDOU-2 IGSO-5 (C10)",
        "group": "gnss",
        "lat": -14.686814910193354,
        "lon": -99.70796275657602,
        "alt_km": 35997.430460872136,
        "timestamp": "2025-12-06T05:40:09.483054+00:00",
        "meta_object_name": "BEIDOU-2 IGSO-5 (C10)",
        "meta_object_id": "2011-073A",
        "meta_epoch": "2025-12-04T19:17:55.815936",
        "meta_mean_motion": 1.00292045,
        "meta_eccentricity": 0.01106348,
        "meta_inclination": 48.036,
        "meta_ra_of_asc_node": 273.956,
        "meta_arg_of_pericenter": 222.1589,
        "meta_mean_anomaly": 319.7219,
        "meta_ephemeris_type": 0,
        "meta_classification_type": "U",
        "meta_norad_cat_id": 37948,
        "meta_element_set_no": 999,
        "meta_rev_at_epoch": 5118,
        "meta_bstar": 0,
        "meta_mean_motion_dot": -1.77e-06,
        "meta_mean_motion_ddot": 0,
        "tle_line1": "1 37948U 11073A   25338.80411824 -.00000177  00000+0  00000+0 0  9996",
        "tle_line2": "2 37948  48.0360 273.9560 0110634 222.1589 319.7219  1.00292045 51180"
      },
      "geometry": {
        "type": "Point",
        "coordinates": [
          -99.70796275657602,
          -14.686814910193354
        ]
      }
    },
    {
      "type": "Feature",
      "properties": {
        "norad_id": 37951,
        "name": "LUCH 5A (SDCM/PRN 140)",
        "group": "gnss",
        "lat": -7.806033431005429,
        "lon": -32.79888287866166,
        "alt_km": 35780.201685324566,
        "timestamp": "2025-12-06T05:40:09.483067+00:00",
        "meta_object_name": "LUCH 5A (SDCM/PRN 140)",
        "meta_object_id": "2011-074B",
        "meta_epoch": "2025-12-05T02:30:23.146848",
        "meta_mean_motion": 1.00273509,
        "meta_eccentricity": 0.00059088,
        "meta_inclination": 8.2594,
        "meta_ra_of_asc_node": 76.6974,
        "meta_arg_of_pericenter": 175.41,
        "meta_mean_anomaly": 26.6478,
        "meta_ephemeris_type": 0,
        "meta_classification_type": "U",
        "meta_norad_cat_id": 37951,
        "meta_element_set_no": 999,
        "meta_rev_at_epoch": 5110,
        "meta_bstar": 0,
        "meta_mean_motion_dot": -4.1e-07,
        "meta_mean_motion_ddot": 0,
        "tle_line1": "1 37951U 11074B   25339.10443457 -.00000041  00000+0  00000+0 0  9992",
        "tle_line2": "2 37951   8.2594  76.6974 0005908 175.4100  26.6478  1.00273509 51101"
      },
      "geometry": {
        "type": "Point",
        "coordinates": [
          -32.79888287866166,
          -7.806033431005429
        ]
      }
    }
  ]
}